start=new Date('2022-03-13T00:00:00.000Z').valueOf();
sats=[{"FILE":"3356931","SEMIMAJOR_AXIS":"6925.421","OBJECT_NAME":"STARLINK-2752","MEAN_MOTION_DOT":"-0.00007477","OBJECT_ID":"2021-044BG","ARG_OF_PERICENTER":"78.6763","PERIOD":"95.594","ELEMENT_SET_NO":"999","REF_FRAME":"TEME","EPOCH":"2022-03-12T22:00:00.999936","NORAD_CAT_ID":"48692","CENTER_NAME":"EARTH","ECCENTRICITY":"0.00014150","BSTAR":"-0.00048392000000","REV_AT_EPOCH":"359","SITE":"AFETR","MEAN_MOTION_DDOT":"0.0000000000000","APOAPSIS":"548.266","COUNTRY_CODE":"US","INCLINATION":"53.0552","OBJECT_TYPE":"PAYLOAD","TLE_LINE1":"1 48692U 21044BG  22071.91667824 -.00007477  00000-0 -48392-3 0  9991","TIME_SYSTEM":"UTC","DECAY_DATE":null,"RCS_SIZE":"LARGE","RA_OF_ASC_NODE":"140.8157","LAUNCH_DATE":"2021-05-26","PERIAPSIS":"546.306","CLASSIFICATION_TYPE":"U","TLE_LINE2":"2 48692  53.0552 140.8157 0001415  78.6763 175.6152 15.06376403  3594","MEAN_MOTION":"15.06376403","MEAN_ANOMALY":"175.6152","GP_ID":"198606793","MEAN_ELEMENT_THEORY":"SGP4","EPHEMERIS_TYPE":"0"},{"MEAN_ANOMALY":"81.6667","MEAN_MOTION":"15.06408041","MEAN_ELEMENT_THEORY":"SGP4","GP_ID":"198607544","EPHEMERIS_TYPE":"0","OBJECT_TYPE":"PAYLOAD","INCLINATION":"53.0553","COUNTRY_CODE":"US","TLE_LINE1":"1 48693U 21044BH  22071.91667824 -.00051250  00000-0 -34458-2 0  9997","TIME_SYSTEM":"UTC","DECAY_DATE":null,"RA_OF_ASC_NODE":"145.8147","RCS_SIZE":"LARGE","LAUNCH_DATE":"2021-05-26","PERIAPSIS":"546.218","TLE_LINE2":"2 48693  53.0553 145.8147 0001402  65.0847  81.6667 15.06408041  3602","CLASSIFICATION_TYPE":"U","NORAD_CAT_ID":"48693","EPOCH":"2022-03-12T22:00:00.999936","CENTER_NAME":"EARTH","ECCENTRICITY":"0.00014020","BSTAR":"-0.00344580000000","SITE":"AFETR","REV_AT_EPOCH":"360","MEAN_MOTION_DDOT":"0.0000000000000","APOAPSIS":"548.160","FILE":"3356931","SEMIMAJOR_AXIS":"6925.324","OBJECT_NAME":"STARLINK-2618","MEAN_MOTION_DOT":"-0.00051250","ARG_OF_PERICENTER":"65.0847","OBJECT_ID":"2021-044BH","PERIOD":"95.592","ELEMENT_SET_NO":"999","REF_FRAME":"TEME"},{"TIME_SYSTEM":"UTC","DECAY_DATE":null,"COUNTRY_CODE":"US","INCLINATION":"53.0536","OBJECT_TYPE":"PAYLOAD","TLE_LINE1":"1 48694U 21044BJ  22071.91667824 -.00019927  00000-0 -13227-2 0  9994","PERIAPSIS":"545.956","CLASSIFICATION_TYPE":"U","TLE_LINE2":"2 48694  53.0536 150.8130 0001828  49.2789 264.8595 15.06397173  3599","RCS_SIZE":"LARGE","RA_OF_ASC_NODE":"150.8130","LAUNCH_DATE":"2021-05-26","MEAN_MOTION":"15.06397173","MEAN_ANOMALY":"264.8595","MEAN_ELEMENT_THEORY":"SGP4","GP_ID":"198606292","EPHEMERIS_TYPE":"0","MEAN_MOTION_DOT":"-0.00019927","FILE":"3356931","SEMIMAJOR_AXIS":"6925.357","OBJECT_NAME":"STARLINK-2748","PERIOD":"95.592","ELEMENT_SET_NO":"999","REF_FRAME":"TEME","ARG_OF_PERICENTER":"49.2789","OBJECT_ID":"2021-044BJ","CENTER_NAME":"EARTH","ECCENTRICITY":"0.00018280","EPOCH":"2022-03-12T22:00:00.999936","NORAD_CAT_ID":"48694","MEAN_MOTION_DDOT":"0.0000000000000","APOAPSIS":"548.488","BSTAR":"-0.00132270000000","REV_AT_EPOCH":"359","SITE":"AFETR"},{"PERIOD":"95.590","ELEMENT_SET_NO":"999","REF_FRAME":"TEME","ARG_OF_PERICENTER":"56.3302","OBJECT_ID":"2021-044BK","MEAN_MOTION_DOT":"-0.00052912","SEMIMAJOR_AXIS":"6925.225","FILE":"3356931","OBJECT_NAME":"STARLINK-2616","MEAN_MOTION_DDOT":"0.0000000000000","APOAPSIS":"548.098","BSTAR":"-0.00355590000000","REV_AT_EPOCH":"359","SITE":"AFETR","ECCENTRICITY":"0.00014550","CENTER_NAME":"EARTH","EPOCH":"2022-03-12T22:00:00.999936","NORAD_CAT_ID":"48695","PERIAPSIS":"546.083","CLASSIFICATION_TYPE":"U","TLE_LINE2":"2 48695  53.0535 150.8112 0001455  56.3302 162.9285 15.06440210  3590","RCS_SIZE":"LARGE","RA_OF_ASC_NODE":"150.8112","LAUNCH_DATE":"2021-05-26","TIME_SYSTEM":"UTC","DECAY_DATE":null,"COUNTRY_CODE":"US","INCLINATION":"53.0535","OBJECT_TYPE":"PAYLOAD","TLE_LINE1":"1 48695U 21044BK  22071.91667824 -.00052912  00000-0 -35559-2 0  9998","MEAN_ELEMENT_THEORY":"SGP4","GP_ID":"198606542","EPHEMERIS_TYPE":"0","MEAN_MOTION":"15.06440210","MEAN_ANOMALY":"162.9285"},{"GP_ID":"198607294","MEAN_ELEMENT_THEORY":"SGP4","EPHEMERIS_TYPE":"0","MEAN_MOTION":"15.06417568","MEAN_ANOMALY":"300.3170","RCS_SIZE":"LARGE","RA_OF_ASC_NODE":"156.9409","LAUNCH_DATE":"2021-05-26","PERIAPSIS":"546.089","CLASSIFICATION_TYPE":"U","TLE_LINE2":"2 48696  53.0552 156.9409 0001546  59.7972 300.3170 15.06417568 44379","COUNTRY_CODE":"US","INCLINATION":"53.0552","OBJECT_TYPE":"PAYLOAD","TLE_LINE1":"1 48696U 21044BL  22071.66756967  .00002988  00000-0  21932-3 0  9995","TIME_SYSTEM":"UTC","DECAY_DATE":null,"BSTAR":"0.00021932000000","REV_AT_EPOCH":"4437","SITE":"AFETR","MEAN_MOTION_DDOT":"0.0000000000000","APOAPSIS":"548.230","EPOCH":"2022-03-12T16:01:18.019488","NORAD_CAT_ID":"48696","CENTER_NAME":"EARTH","ECCENTRICITY":"0.00015460","OBJECT_ID":"2021-044BL","ARG_OF_PERICENTER":"59.7972","PERIOD":"95.591","REF_FRAME":"TEME","ELEMENT_SET_NO":"999","FILE":"3356931","SEMIMAJOR_AXIS":"6925.295","OBJECT_NAME":"STARLINK-2753","MEAN_MOTION_DOT":"0.00002988"},{"SITE":"AFETR","REV_AT_EPOCH":"4437","BSTAR":"0.00015119000000","APOAPSIS":"548.302","MEAN_MOTION_DDOT":"0.0000000000000","NORAD_CAT_ID":"48697","EPOCH":"2022-03-12T16:49:04.520064","CENTER_NAME":"EARTH","ECCENTRICITY":"0.00016250","ARG_OF_PERICENTER":"49.7763","OBJECT_ID":"2021-044BM","ELEMENT_SET_NO":"999","REF_FRAME":"TEME","PERIOD":"95.591","OBJECT_NAME":"STARLINK-2715","FILE":"3356931","SEMIMAJOR_AXIS":"6925.311","MEAN_MOTION_DOT":"0.00001972","EPHEMERIS_TYPE":"0","MEAN_ELEMENT_THEORY":"SGP4","GP_ID":"198607044","MEAN_ANOMALY":"310.3368","MEAN_MOTION":"15.06412175","LAUNCH_DATE":"2021-05-26","RA_OF_ASC_NODE":"156.7952","RCS_SIZE":"LARGE","TLE_LINE2":"2 48697  53.0549 156.7952 0001625  49.7763 310.3368 15.06412175 44371","CLASSIFICATION_TYPE":"U","PERIAPSIS":"546.051","TLE_LINE1":"1 48697U 21044BM  22071.70074676  .00001972  00000-0  15119-3 0  9993","OBJECT_TYPE":"PAYLOAD","COUNTRY_CODE":"US","INCLINATION":"53.0549","DECAY_DATE":null,"TIME_SYSTEM":"UTC"},{"RA_OF_ASC_NODE":"203.3786","RCS_SIZE":"LARGE","LAUNCH_DATE":"2021-06-30","PERIAPSIS":"514.820","TLE_LINE2":"2 48879  97.5284 203.3786 0004466 199.9469 221.7351 15.16015310 39892","CLASSIFICATION_TYPE":"U","OBJECT_TYPE":"PAYLOAD","COUNTRY_CODE":"US","INCLINATION":"97.5284","TLE_LINE1":"1 48879U 21059A   22071.91667824 -.00029180  00000-0 -15221-2 0  9993","TIME_SYSTEM":"UTC","DECAY_DATE":null,"GP_ID":"198575049","MEAN_ELEMENT_THEORY":"SGP4","EPHEMERIS_TYPE":"0","MEAN_ANOMALY":"221.7351","MEAN_MOTION":"15.16015310","ARG_OF_PERICENTER":"199.9469","OBJECT_ID":"2021-059A","PERIOD":"94.986","REF_FRAME":"TEME","ELEMENT_SET_NO":"999","FILE":"3356568","SEMIMAJOR_AXIS":"6896.035","OBJECT_NAME":"STARLINK-3003","MEAN_MOTION_DOT":"-0.00029180","BSTAR":"-0.00152210000000","SITE":"AFETR","REV_AT_EPOCH":"3989","MEAN_MOTION_DDOT":"0.0000000000000","APOAPSIS":"520.980","NORAD_CAT_ID":"48879","EPOCH":"2022-03-12T22:00:00.999936","CENTER_NAME":"EARTH","ECCENTRICITY":"0.00044660"},{"ECCENTRICITY":"0.00050500","CENTER_NAME":"EARTH","EPOCH":"2022-03-12T22:00:00.999936","NORAD_CAT_ID":"48880","APOAPSIS":"521.518","MEAN_MOTION_DDOT":"0.0000000000000","REV_AT_EPOCH":"3989","SITE":"AFETR","BSTAR":"-0.00065546000000","MEAN_MOTION_DOT":"-0.00012617","OBJECT_NAME":"STARLINK-3004","FILE":"3356581","SEMIMAJOR_AXIS":"6896.170","ELEMENT_SET_NO":"999","REF_FRAME":"TEME","PERIOD":"94.989","ARG_OF_PERICENTER":"183.3626","OBJECT_ID":"2021-059B","MEAN_MOTION":"15.15970720","MEAN_ANOMALY":"257.8387","EPHEMERIS_TYPE":"0","MEAN_ELEMENT_THEORY":"SGP4","GP_ID":"198575255","DECAY_DATE":null,"TIME_SYSTEM":"UTC","TLE_LINE1":"1 48880U 21059B   22071.91667824 -.00012617  00000-0 -65546-3 0  9998","COUNTRY_CODE":"US","INCLINATION":"97.5281","OBJECT_TYPE":"PAYLOAD","CLASSIFICATION_TYPE":"U","TLE_LINE2":"2 48880  97.5281 203.3847 0005050 183.3626 257.8387 15.15970720 39894","PERIAPSIS":"514.553","LAUNCH_DATE":"2021-06-30","RCS_SIZE":"LARGE","RA_OF_ASC_NODE":"203.3847"},{"MEAN_MOTION_DDOT":"0.0000000000000","APOAPSIS":"521.649","BSTAR":"-0.00100290000000","REV_AT_EPOCH":"361","SITE":"AFETR","CENTER_NAME":"EARTH","ECCENTRICITY":"0.00052870","EPOCH":"2022-03-12T22:00:00.999936","NORAD_CAT_ID":"48881","PERIOD":"94.988","ELEMENT_SET_NO":"999","REF_FRAME":"TEME","ARG_OF_PERICENTER":"176.0980","OBJECT_ID":"2021-059C","MEAN_MOTION_DOT":"-0.00019259","FILE":"3356931","SEMIMAJOR_AXIS":"6896.138","OBJECT_NAME":"STARLINK-3005","MEAN_ELEMENT_THEORY":"SGP4","GP_ID":"198606814","EPHEMERIS_TYPE":"0","MEAN_MOTION":"15.15981236","MEAN_ANOMALY":"257.2131","PERIAPSIS":"514.357","CLASSIFICATION_TYPE":"U","TLE_LINE2":"2 48881  97.5285 203.3987 0005287 176.0980 257.2131 15.15981236  3614","RCS_SIZE":"LARGE","RA_OF_ASC_NODE":"203.3987","LAUNCH_DATE":"2021-06-30","TIME_SYSTEM":"UTC","DECAY_DATE":null,"INCLINATION":"97.5285","COUNTRY_CODE":"US","OBJECT_TYPE":"PAYLOAD","TLE_LINE1":"1 48881U 21059C   22071.91667824 -.00019259  00000-0 -10029-2 0  9993"},{"OBJECT_ID":"2021-082B","ARG_OF_PERICENTER":"257.0468","ELEMENT_SET_NO":"999","REF_FRAME":"TEME","PERIOD":"91.733","OBJECT_NAME":"STARLINK-3096","FILE":"3356931","SEMIMAJOR_AXIS":"6737.692","MEAN_MOTION_DOT":"-0.00095323","SITE":"AFWTR","REV_AT_EPOCH":"369","BSTAR":"-0.00080503000000","APOAPSIS":"362.141","MEAN_MOTION_DDOT":"0.0000000000000","NORAD_CAT_ID":"49131","EPOCH":"2022-03-12T22:00:00.999936","CENTER_NAME":"EARTH","ECCENTRICITY":"0.00038360","LAUNCH_DATE":"2021-09-14","RA_OF_ASC_NODE":"341.5152","RCS_SIZE":"LARGE","TLE_LINE2":"2 49131  70.0012 341.5152 0003836 257.0468 240.4160 15.69770054  3692","CLASSIFICATION_TYPE":"U","PERIAPSIS":"356.972","TLE_LINE1":"1 49131U 21082B   22071.91667824 -.00095323  00000-0 -80503-3 0  9999","OBJECT_TYPE":"PAYLOAD","COUNTRY_CODE":"US","INCLINATION":"70.0012","DECAY_DATE":null,"TIME_SYSTEM":"UTC","EPHEMERIS_TYPE":"0","MEAN_ELEMENT_THEORY":"SGP4","GP_ID":"198607343","MEAN_ANOMALY":"240.4160","MEAN_MOTION":"15.69770054"}];
